satname,norad_id,inclination_deg,eccentricity,mean_motion_rev_per_day,perigee_km,apogee_km,l1,l2
STARLINK-1413,45689,53.1564,0.0003287,15.32514734,466.0619636855263,470.562819515565,1 45689U 20035AJ  26128.70402375  .00042823  00000+0  13490-2 0  9996,2 45689  53.1564 130.5728 0003287  60.7041 299.4289 15.32514734328081
STARLINK-1417,45693,53.0501,0.0005894,15.1542048,515.6367274169515,523.7679004001857,1 45693U 20035AN  26128.73424171  .00025018  00000+0  13196-2 0  9992,2 45693  53.0501 141.5341 0005894  45.1857 314.9614 15.15420480327996
STARLINK-1420,45695,53.0464,0.0006998,15.65066168,368.3239883426877,377.7729475236074,1 45695U 20035AQ  26128.14270201  .00058844  00000+0  58726-3 0  9994,2 45695  53.0464  92.9549 0006998  40.1416 320.0114 15.65066168328636
STARLINK-1422,45696,53.1559,0.000362,15.32609614,465.5515120058062,470.5081367866678,1 45696U 20035AR  26128.70800713  .00034093  00000+0  10743-2 0  9990,2 45696  53.1559 130.5175 0003620  53.1617 306.9717 15.32609614328166
STARLINK-1351,45697,53.0443,0.0006815,15.62821122,374.90712205711134,384.1177982713143,1 45697U 20035AS  26128.19472573  .00108624  00000+0  11722-2 0  9993,2 45697  53.0443  92.7558 0006815  44.7632 315.3930 15.62821122328641
STARLINK-1400,45700,53.0438,0.0005906,15.60461358,382.3283647176013,390.31854540712084,1 45700U 20035AV  26128.87432721  .00065768  00000+0  78422-3 0  9996,2 45700  53.0438  91.5625 0005906  14.2427 345.8751 15.60461358328712
STARLINK-1403,45701,53.1564,0.000301,15.31617373,468.92472696882214,473.0478992033013,1 45701U 20035AW  26128.70066586  .00049298  00000+0  15939-2 0  9994,2 45701  53.1564 117.8781 0003010  64.3380 295.7932 15.31617373328337
STARLINK-1407,45703,53.0302,0.0002299,15.69633968,358.3952487842507,361.4934185814773,1 45703U 20035AY  26128.83978145  .00055214  00000+0  45892-3 0  9990,2 45703  53.0302  20.2723 0002299 347.3872  12.7086 15.69633968329718
STARLINK-1411,45706,53.0352,0.0003086,15.7795404,334.1661779243923,338.31029031889284,1 45706U 20035BB  26128.91668980  .00105792  00000+0  60815-3 0  9994,2 45706  53.0352  43.8929 0003086 107.5892 126.6805 15.77954040  5922
STARLINK-1423,45710,53.0438,0.0007659,15.65987837,365.2305442597135,375.5679520846643,1 45710U 20035BF  26128.19164676  .00045936  00000+0  44366-3 0  9998,2 45710  53.0438  92.3684 0007659  14.2158 345.9071 15.65987837328632
STARLINK-1433,45711,53.0438,0.0007552,15.65638827,366.3048750897142,376.49937898719327,1 45711U 20035BG  26128.87105131  .00047489  00000+0  46485-3 0  9994,2 45711  53.0438  87.5361 0007552  23.2343 336.9011 15.65638827328769
STARLINK-1434,45712,53.0489,0.0003635,15.32054831,467.19328425418917,472.1716490064291,1 45712U 20035BH  26128.61964618  .00042585  00000+0  13608-2 0  9992,2 45712  53.0489 101.2652 0003635  18.9574 341.1561 15.32054831328565
STARLINK-1465,45731,53.0468,0.000203,15.59723976,387.08166635502675,389.82890282256994,1 45731U 20038B   26128.74612779  .00094929  00000+0  11579-2 0  9992,2 45731  53.0468 292.8838 0002030 181.7843 178.3162 15.59723976325726
STARLINK-1471,45735,53.0443,0.0002592,15.52124463,408.76474182004586,412.28398387054403,1 45735U 20038F   26128.71942264  .00022378  00000+0  37048-3 0  9997,2 45735  53.0443 213.7039 0002592  52.4112 307.7132 15.52124463326842
STARLINK-1480,45741,53.0493,0.0003666,15.6110976,381.9710960537295,386.92942503315953,1 45741U 20038M   26128.73347369  .00091367  00000+0  10575-2 0  9990,2 45741  53.0493 286.6669 0003666 278.4991  81.5606 15.61109760325823
STARLINK-1500,45744,53.037,0.0002795,15.37910855,450.3789919768742,454.1971996054208,1 45744U 20038Q   26128.65382284  .00023237  00000+0  62271-3 0  9991,2 45744  53.0370 270.7760 0002795  88.1387 271.9936 15.37910855326036
STARLINK-1504,45746,53.02,0.0002723,15.57199274,393.9226025565986,397.6116707494202,1 45746U 20038S   26128.45047910  .00028486  00000+0  38996-3 0  9993,2 45746  53.0200 212.9767 0002723  22.3296 337.7833 15.57199274326814
STARLINK-1506,45747,53.077,0.0003934,15.27851147,479.53843320266697,484.9361757054121,1 45747U 20038T   26128.80846498  .00006939  00000+0  26430-3 0  9990,2 45747  53.0770 283.9209 0003934  86.6414 273.5035 15.27851147325873
STARLINK-1464,45751,53.047,0.0001203,15.51752739,410.7916671620351,412.4252799229698,1 45751U 20038X   26128.75353035  .00082087  00000+0  13466-2 0  9991,2 45751  53.0470 277.4252 0001203 285.0236  75.0640 15.51752739325955
STARLINK-1477,45754,53.0503,0.0001766,15.17483042,512.2334835299362,514.6675922483191,1 45754U 20038AA  26128.76050123  .00032345  00000+0  16033-2 0  9992,2 45754  53.0503 299.2683 0001766 157.2157 202.8915 15.17483042325642
STARLINK-1478,45755,53.0459,0.0001755,15.65253781,371.32424922212067,373.69372596376706,1 45755U 20038AB  26128.64960994  .00045754  00000+0  45562-3 0  9994,2 45755  53.0459 265.6646 0001755 326.6887  33.4016 15.65253781326097
STARLINK-1493,45759,53.0482,0.0004584,15.60527112,383.0326950263234,389.2341781625928,1 45759U 20038AF  26128.85197661  .00111199  00000+0  13114-2 0  9998,2 45759  53.0482 273.4848 0004584 268.8767  91.1721 15.60527112326007
STARLINK-1494,45760,53.0412,0.0006123,15.90865348,295.771168540894,303.94904379710897,1 45760U 20038AG  26128.91668980  .00182288  23311-4  57816-3 0  9994,2 45760  53.0412 208.7807 0006123 338.0652  17.6190 15.90865348  6009
STARLINK-1502,45764,53.0478,0.000573,15.56879951,392.8113657770309,400.5753213507551,1 45764U 20038AL  26128.70593336  .00068615  00000+0  93587-3 0  9994,2 45764  53.0478 277.2122 0005730 239.7097 120.3347 15.56879951325950
STARLINK-1470,45772,53.0443,0.0002116,15.33197357,464.8318063326851,467.72836364305294,1 45772U 20038AU  26128.74690424  .00048274  00000+0  14859-2 0  9996,2 45772  53.0443 254.4402 0002116 280.1160  79.9602 15.33197357326272
STARLINK-1482,45773,53.1573,0.0002308,15.35430743,458.0632095068322,461.21952800184954,1 45773U 20038AV  26128.67395514  .00079656  00000+0  22681-2 0  9991,2 45773  53.1573 271.3499 0002308 257.9562 102.1183 15.35430743326042
STARLINK-1496,45780,53.0461,0.0005798,15.58580358,387.8397101669152,395.6900884093293,1 45780U 20038BC  26128.54186338  .00090426  00000+0  11521-2 0  9996,2 45780  53.0461 249.1599 0005798 339.7284  20.3496 15.58580358326316
STARLINK-1513,45786,53.159,6.87e-05,15.31630746,470.47591354194356,471.41697760736497,1 45786U 20038BJ  26128.82210236  .00019466  00000+0  63876-3 0  9994,2 45786  53.1590 271.5894 0000687 100.0782 260.0297 15.31630746326058
STARLINK-1522,46027,53.0618,0.0001742,15.11956796,529.0295218949313,531.4363979889758,1 46027U 20055A   26128.56240882  .00020420  00000+0  11909-2 0  9994,2 46027  53.0618 216.0514 0001742 315.2387  44.8464 15.11956796317939
STARLINK-1523,46028,53.1602,9.74e-05,15.30234784,474.44370625663487,475.7787190084555,1 46028U 20055B   26128.54649494  .00004868  00000+0  17619-3 0  9998,2 46028  53.1602 208.6726 0000974  84.4434 275.6678 15.30234784318063
STARLINK-1526,46029,53.1594,0.0001663,15.30191063,474.10203693353196,476.38147070705236,1 46029U 20055C   26128.54021514  .00001240  00000+0  54005-4 0  9998,2 46029  53.1594 208.7134 0001663  93.6226 266.4965 15.30191063318053
STARLINK-1555,46032,53.1576,0.0001558,15.30200223,474.1466514329222,476.28215573027865,1 46032U 20055F   26128.58972350 -.00001854  00000+0 -50489-4 0  9994,2 46032  53.1576 208.4659 0001558  86.2119 273.9059 15.30200223318065
STARLINK-1556,46033,53.1604,0.0001144,15.30199416,474.4327894623884,476.00083681483466,1 46033U 20055G   26128.50755689  .00005317  00000+0  19152-3 0  9998,2 46033  53.1604 208.8652 0001144  97.5490 262.5640 15.30199416318020
STARLINK-1557,46034,53.1619,0.0001404,15.30220409,474.1919304263538,476.1163345763616,1 46034U 20055H   26128.51071203 -.00005193  00000+0 -16322-3 0  9993,2 46034  53.1619 208.8457 0001404  92.6297 267.4865 15.30220409318020
STARLINK-1558,46035,53.1586,0.0001373,15.30196798,474.2836634790274,476.16559658263395,1 46035U 20055J   26128.51808986  .00003386  00000+0  12641-3 0  9990,2 46035  53.1586 208.8116 0001373 103.5671 256.5482 15.30196798318059
STARLINK-1560,46036,53.1594,0.0001006,15.30195228,474.5398691366245,475.9187664397623,1 46036U 20055K   26128.50439661  .00009072  00000+0  31810-3 0  9997,2 46036  53.1594 208.8834 0001006  91.8385 268.2731 15.30195228318054
STARLINK-1567,46038,53.0682,0.0004531,16.27745511,195.62556133261114,201.58540537102454,1 46038U 20055M   26129.05823760  .04038897  12045-4  10620-2 0  9990,2 46038  53.0682 187.1898 0004531 339.4171  20.6687 16.27745511318381
STARLINK-1569,46039,53.1597,0.0001462,15.30211998,474.1772909529145,476.18120062318303,1 46039U 20055N   26128.58654906  .00003608  00000+0  13385-3 0  9995,2 46039  53.1597 208.4839 0001462 101.2336 258.8829 15.30211998318055
STARLINK-1582,46043,53.1582,0.0001216,15.31699678,469.90813153172076,471.5737786503996,1 46043U 20055S   26128.56836023 -.00000852  00000+0 -15679-4 0  9999,2 46043  53.1582 208.3002 0001216  93.1373 266.9767 15.31699678318059
STARLINK-1591,46045,53.1586,0.0001106,15.30209972,474.4273175406579,475.94327243230873,1 46045U 20055U   26128.48858510 -.00005025  00000+0 -15761-3 0  9995,2 46045  53.1586 208.9458 0001106  80.7710 279.3415 15.30209972318029
STARLINK-1524,46047,53.1588,0.0001317,15.31686759,469.8774639433823,471.6814685405907,1 46047U 20055W   26128.47243647 -.00000068  00000+0  95656-5 0  9999,2 46047  53.1588 196.0415 0001317  97.5814 262.5337 15.31686759318220
STARLINK-1527,46048,53.1588,0.0001148,15.31714693,469.909950456371,471.4824425582883,1 46048U 20055X   26128.66352505  .00004286  00000+0  14972-3 0  9990,2 46048  53.1588 195.1351 0001148  96.7434 263.3698 15.31714693318229
STARLINK-1540,46051,53.1585,0.0001249,15.30198485,474.3636087015175,476.0755771784343,1 46051U 20055AA  26128.51225378  .00001043  00000+0  47326-4 0  9993,2 46051  53.1585 195.9732 0001249  89.6094 270.5050 15.30198485318244
